{
  "links" : {
    "next" : "https://api.nasa.gov/neo/rest/v1/feed?start_date=1999-01-16&end_date=1999-01-16&detailed=true&api_key=t0TVs3DtDT2H8Oy2Zy8m2eVrNsAVKAexjcZXUckd",
    "prev" : "https://api.nasa.gov/neo/rest/v1/feed?start_date=1999-01-14&end_date=1999-01-14&detailed=true&api_key=t0TVs3DtDT2H8Oy2Zy8m2eVrNsAVKAexjcZXUckd",
    "self" : "https://api.nasa.gov/neo/rest/v1/feed?start_date=1999-01-15&end_date=1999-01-15&detailed=true&api_key=t0TVs3DtDT2H8Oy2Zy8m2eVrNsAVKAexjcZXUckd"
  },
  "element_count" : 4,
  "near_earth_objects" : {
    "1999-01-15" : [ {
      "links" : {
        "self" : "https://api.nasa.gov/neo/rest/v1/neo/2086450?api_key=t0TVs3DtDT2H8Oy2Zy8m2eVrNsAVKAexjcZXUckd"
      },
      "neo_reference_id" : "2086450",
      "name" : "86450 (2000 CK33)",
      "nasa_jpl_url" : "http://ssd.jpl.nasa.gov/sbdb.cgi?sstr=2086450",
      "absolute_magnitude_h" : 18.2,
      "estimated_diameter" : {
        "kilometers" : {
          "estimated_diameter_min" : 0.6089126221,
          "estimated_diameter_max" : 1.3615700154
        },
        "meters" : {
          "estimated_diameter_min" : 608.9126221057,
          "estimated_diameter_max" : 1361.5700153859
        },
        "miles" : {
          "estimated_diameter_min" : 0.3783606449,
          "estimated_diameter_max" : 0.846040122
        },
        "feet" : {
          "estimated_diameter_min" : 1997.7448871092,
          "estimated_diameter_max" : 4467.0933692788
        }
      },
      "is_potentially_hazardous_asteroid" : false,
      "close_approach_data" : [ {
        "close_approach_date" : "1999-01-15",
        "epoch_date_close_approach" : 916387200000,
        "relative_velocity" : {
          "kilometers_per_second" : "25.7147697285",
          "kilometers_per_hour" : "92573.1710227714",
          "miles_per_hour" : "57521.3684057881"
        },
        "miss_distance" : {
          "astronomical" : "0.402318032",
          "lunar" : "156.5017089844",
          "kilometers" : "60185920",
          "miles" : "37397796"
        },
        "orbiting_body" : "Earth"
      } ],
      "orbital_data" : {
        "orbit_id" : "83",
        "orbit_determination_date" : "2017-04-06 09:28:30",
        "orbit_uncertainty" : "1",
        "minimum_orbit_intersection" : ".125901",
        "jupiter_tisserand_invariant" : "6.121",
        "epoch_osculation" : "2458000.5",
        "eccentricity" : ".4148344933936304",
        "semi_major_axis" : ".9680906948242638",
        "inclination" : "18.10586391751842",
        "ascending_node_longitude" : "124.8732999815172",
        "orbital_period" : "347.9144730250309",
        "perihelion_distance" : ".5664932818777527",
        "perihelion_argument" : "215.5964717931022",
        "aphelion_distance" : "1.369688107770775",
        "perihelion_time" : "2458091.731499789057",
        "mean_anomaly" : "265.5993858533798",
        "mean_motion" : "1.034737063019795",
        "equinox" : "J2000"
      }
    }, {
      "links" : {
        "self" : "https://api.nasa.gov/neo/rest/v1/neo/3017307?api_key=t0TVs3DtDT2H8Oy2Zy8m2eVrNsAVKAexjcZXUckd"
      },
      "neo_reference_id" : "3017307",
      "name" : "(1999 AF4)",
      "nasa_jpl_url" : "http://ssd.jpl.nasa.gov/sbdb.cgi?sstr=3017307",
      "absolute_magnitude_h" : 18.2,
      "estimated_diameter" : {
        "kilometers" : {
          "estimated_diameter_min" : 0.6089126221,
          "estimated_diameter_max" : 1.3615700154
        },
        "meters" : {
          "estimated_diameter_min" : 608.9126221057,
          "estimated_diameter_max" : 1361.5700153859
        },
        "miles" : {
          "estimated_diameter_min" : 0.3783606449,
          "estimated_diameter_max" : 0.846040122
        },
        "feet" : {
          "estimated_diameter_min" : 1997.7448871092,
          "estimated_diameter_max" : 4467.0933692788
        }
      },
      "is_potentially_hazardous_asteroid" : false,
      "close_approach_data" : [ {
        "close_approach_date" : "1999-01-15",
        "epoch_date_close_approach" : 916387200000,
        "relative_velocity" : {
          "kilometers_per_second" : "12.5097552168",
          "kilometers_per_hour" : "45035.1187803774",
          "miles_per_hour" : "27983.0714443962"
        },
        "miss_distance" : {
          "astronomical" : "0.1975982308",
          "lunar" : "76.8657150269",
          "kilometers" : "29560276",
          "miles" : "18367904"
        },
        "orbiting_body" : "Earth"
      } ],
      "orbital_data" : {
        "orbit_id" : "14",
        "orbit_determination_date" : "2017-09-02 06:18:31",
        "orbit_uncertainty" : "0",
        "minimum_orbit_intersection" : ".11466",
        "jupiter_tisserand_invariant" : "2.972",
        "epoch_osculation" : "2458000.5",
        "eccentricity" : ".6189363100675068",
        "semi_major_axis" : "2.822814106311054",
        "inclination" : "12.59888356909091",
        "ascending_node_longitude" : "294.9179510324398",
        "orbital_period" : "1732.294974376328",
        "perihelion_distance" : "1.075671959344383",
        "perihelion_argument" : "154.7997993384078",
        "aphelion_distance" : "4.569956253277724",
        "perihelion_time" : "2458109.994690079394",
        "mean_anomaly" : "337.245163778892",
        "mean_motion" : ".2078168010212057",
        "equinox" : "J2000"
      }
    }, {
      "links" : {
        "self" : "https://api.nasa.gov/neo/rest/v1/neo/3102729?api_key=t0TVs3DtDT2H8Oy2Zy8m2eVrNsAVKAexjcZXUckd"
      },
      "neo_reference_id" : "3102729",
      "name" : "(2002 AZ1)",
      "nasa_jpl_url" : "http://ssd.jpl.nasa.gov/sbdb.cgi?sstr=3102729",
      "absolute_magnitude_h" : 22.0,
      "estimated_diameter" : {
        "kilometers" : {
          "estimated_diameter_min" : 0.1058168859,
          "estimated_diameter_max" : 0.2366137501
        },
        "meters" : {
          "estimated_diameter_min" : 105.8168859331,
          "estimated_diameter_max" : 236.6137501138
        },
        "miles" : {
          "estimated_diameter_min" : 0.0657515442,
          "estimated_diameter_max" : 0.1470249225
        },
        "feet" : {
          "estimated_diameter_min" : 347.1682720448,
          "estimated_diameter_max" : 776.2918559233
        }
      },
      "is_potentially_hazardous_asteroid" : true,
      "close_approach_data" : [ {
        "close_approach_date" : "1999-01-15",
        "epoch_date_close_approach" : 916387200000,
        "relative_velocity" : {
          "kilometers_per_second" : "30.0645835988",
          "kilometers_per_hour" : "108232.5009558391",
          "miles_per_hour" : "67251.4670522546"
        },
        "miss_distance" : {
          "astronomical" : "0.3867942433",
          "lunar" : "150.4629516602",
          "kilometers" : "57863596",
          "miles" : "35954772"
        },
        "orbiting_body" : "Earth"
      } ],
      "orbital_data" : {
        "orbit_id" : "6",
        "orbit_determination_date" : "2017-04-06 09:15:38",
        "orbit_uncertainty" : "7",
        "minimum_orbit_intersection" : ".0168435",
        "jupiter_tisserand_invariant" : "3.397",
        "epoch_osculation" : "2458000.5",
        "eccentricity" : ".66594319841515",
        "semi_major_axis" : "2.119838039415561",
        "inclination" : "8.134333827024909",
        "ascending_node_longitude" : "113.7344910501193",
        "orbital_period" : "1127.333592783955",
        "perihelion_distance" : ".7081463153250613",
        "perihelion_argument" : "97.03563710854345",
        "aphelion_distance" : "3.53152976350606",
        "perihelion_time" : "2457994.083518412454",
        "mean_anomaly" : "2.049023808305245",
        "mean_motion" : ".3193375965236506",
        "equinox" : "J2000"
      }
    }, {
      "links" : {
        "self" : "https://api.nasa.gov/neo/rest/v1/neo/3648862?api_key=t0TVs3DtDT2H8Oy2Zy8m2eVrNsAVKAexjcZXUckd"
      },
      "neo_reference_id" : "3648862",
      "name" : "(2013 TQ5)",
      "nasa_jpl_url" : "http://ssd.jpl.nasa.gov/sbdb.cgi?sstr=3648862",
      "absolute_magnitude_h" : 19.8,
      "estimated_diameter" : {
        "kilometers" : {
          "estimated_diameter_min" : 0.2914439045,
          "estimated_diameter_max" : 0.6516883822
        },
        "meters" : {
          "estimated_diameter_min" : 291.4439045349,
          "estimated_diameter_max" : 651.6883821679
        },
        "miles" : {
          "estimated_diameter_min" : 0.1810947904,
          "estimated_diameter_max" : 0.4049402617
        },
        "feet" : {
          "estimated_diameter_min" : 956.1808197541,
          "estimated_diameter_max" : 2138.0853117517
        }
      },
      "is_potentially_hazardous_asteroid" : false,
      "close_approach_data" : [ {
        "close_approach_date" : "1999-01-15",
        "epoch_date_close_approach" : 916387200000,
        "relative_velocity" : {
          "kilometers_per_second" : "11.4951995883",
          "kilometers_per_hour" : "41382.7185179167",
          "miles_per_hour" : "25713.6119590911"
        },
        "miss_distance" : {
          "astronomical" : "0.2892030224",
          "lunar" : "112.4999771118",
          "kilometers" : "43264156",
          "miles" : "26883100"
        },
        "orbiting_body" : "Earth"
      } ],
      "orbital_data" : {
        "orbit_id" : "13",
        "orbit_determination_date" : "2017-04-06 08:44:21",
        "orbit_uncertainty" : "2",
        "minimum_orbit_intersection" : ".192941",
        "jupiter_tisserand_invariant" : "7.456",
        "epoch_osculation" : "2458000.5",
        "eccentricity" : ".155607279874911",
        "semi_major_axis" : ".7736569506630775",
        "inclination" : "16.39876128324156",
        "ascending_node_longitude" : "286.7755471363247",
        "orbital_period" : "248.5541818245478",
        "perihelion_distance" : ".6532702970140777",
        "perihelion_argument" : "247.308533625203",
        "aphelion_distance" : ".8940436043120773",
        "perihelion_time" : "2457937.072297215725",
        "mean_anomaly" : "91.86718499251504",
        "mean_motion" : "1.448376355438352",
        "equinox" : "J2000"
      }
    } ]
  }
}